[{"OBJECT_NAME":"STARLINK-2187","OBJECT_ID":"2021-041K","EPOCH":"2026-03-09T10:50:24.076320","MEAN_MOTION":15.30210871,"ECCENTRICITY":0.00013182,"INCLINATION":53.1596,"RA_OF_ASC_NODE":127.8041,"ARG_OF_PERICENTER":87.0026,"MEAN_ANOMALY":273.1126,"EPHEMERIS_TYPE":0,"CLASSIFICATION_TYPE":"U","NORAD_CAT_ID":48562,"ELEMENT_SET_NO":999,"REV_AT_EPOCH":26524,"BSTAR":0.00013571257,"MEAN_MOTION_DOT":3.664e-5,"MEAN_MOTION_DDOT":0},{"OBJECT_NAME":"FENGYUN 1C DEB","OBJECT_ID":"1999-025AUA","EPOCH":"2026-03-09T22:20:03.086592","MEAN_MOTION":15.37519861,"ECCENTRICITY":0.00616014,"INCLINATION":98.7858,"RA_OF_ASC_NODE":60.8335,"ARG_OF_PERICENTER":230.1589,"MEAN_ANOMALY":129.4222,"EPHEMERIS_TYPE":0,"CLASSIFICATION_TYPE":"U","NORAD_CAT_ID":30764,"ELEMENT_SET_NO":999,"REV_AT_EPOCH":2558,"BSTAR":0.00082447851,"MEAN_MOTION_DOT":0.00032356,"MEAN_MOTION_DDOT":0}]
